{"type":"FeatureCollection", "features": [
{"type":"Feature","geometry":{"type":"Polygon","coordinates":[[[36.0506,4.4562],[35.9439,4.548],[35.9389,4.5844],[35.9493,4.6286],[35.8121,4.7824],[35.8118,5.0957],[35.8397,5.1258],[35.8518,5.1478],[35.8616,5.1567],[35.8641,5.1825],[35.8537,5.2031],[35.8387,5.2113],[35.8277,5.2422],[35.8296,5.2606],[35.8421,5.2719],[35.8638,5.3006],[35.8619,5.3211],[35.8542,5.3212],[35.8182,5.3421],[35.7905,5.3454],[35.7852,5.3531],[35.7685,5.3512],[35.7549,5.3569],[35.7514,5.3731],[35.7237,5.379],[35.7133,5.3895],[35.6969,5.3909],[35.6714,5.3844],[35.6474,5.3888],[35.6322,5.3823],[35.6128,5.4046],[35.598,5.3999],[35.5863,5.4162],[35.5598,5.4229],[35.485,5.4297],[35.2918,5.4306],[35.1946,5.2767],[34.3658,4.5766],[33.9928,4.2225],[34.039,4.1875],[34.0486,4.1783],[34.067,4.1422],[34.0508,4.1208],[34.064,4.0932],[34.0818,4.085],[34.0931,4.0687],[34.0904,4.0376],[34.0598,4.0279],[34.062,4.0094],[34.0815,4.0035],[34.1059,3.9769],[34.1344,3.9616],[34.1217,3.9088],[34.1152,3.8974],[34.0912,3.8856],[34.0885,3.8616],[34.1278,3.8722],[34.1495,3.8689],[34.1672,3.8703],[34.1754,3.88],[34.2156,3.8815],[34.2254,3.8514],[34.2254,3.8308],[34.1795,3.8317],[34.1628,3.8104],[34.1707,3.8005],[34.1886,3.7954],[34.1904,3.7834],[34.1702,3.7751],[34.1718,3.7677],[34.2212,3.7845],[34.2455,3.7843],[34.2672,3.7474],[34.283,3.7314],[34.3078,3.7124],[34.3242,3.7274],[34.3537,3.7353],[34.3778,3.7307],[34.3998,3.7062],[34.4031,3.6929],[34.4249,3.688],[34.4548,3.6769],[34.463,3.6696],[34.4531,3.6118],[34.4565,3.5787],[34.451,3.5188],[34.4235,3.4915],[34.398,3.4886],[34.3904,3.4844],[34.4165,3.4511],[34.419,3.4337],[34.41,3.4184],[34.4016,3.4148],[34.4006,3.3713],[34.4292,3.3431],[34.4383,3.3079],[34.4474,3.2839],[34.4552,3.2007],[34.4554,3.1828],[34.4607,3.1743],[34.4827,3.1648],[34.4947,3.1415],[34.5133,3.1511],[34.5476,3.1388],[34.5593,3.113],[34.5755,3.0992],[34.5779,3.0699],[34.5774,3.0233],[34.5883,3.0041],[34.5894,2.982],[34.5991,2.9261],[34.6401,2.9076],[34.6535,2.8675],[34.6927,2.8629],[34.7023,2.8781],[34.7123,2.8654],[34.737,2.8552],[34.7493,2.8258],[34.7666,2.8226],[34.7812,2.7681],[34.7838,2.7429],[34.7749,2.6978],[34.7895,2.684],[34.7985,2.6557],[34.8302,2.6207],[34.8519,2.5835],[34.8673,2.5708],[34.8781,2.5727],[34.8794,2.5896],[34.897,2.5881],[34.9043,2.5492],[34.9127,2.5167],[34.9318,2.5166],[34.9514,2.4591],[34.9408,2.4531],[34.9712,2.4365],[35.01,2.4035],[35.0087,2.4247],[35.0214,2.4338],[35.0169,2.4535],[34.9973,2.4751],[35.0047,2.5084],[35.0096,2.554],[35.0161,2.5676],[35.0264,2.5648],[35.0316,2.5372],[35.0443,2.5169],[35.06,2.4841],[35.0679,2.4625],[35.0933,2.4786],[35.101,2.4883],[35.1105,2.5206],[35.1045,2.5475],[35.1073,2.5689],[35.117,2.6037],[35.1277,2.6234],[35.1305,2.6449],[35.1605,2.6482],[35.1744,2.6368],[35.1982,2.5918],[35.2129,2.5507],[35.2249,2.5299],[35.2201,2.4938],[35.2226,2.4623],[35.2317,2.4414],[35.2233,2.412],[35.2366,2.3786],[35.2321,2.3512],[35.239,2.3435],[35.2613,2.3317],[35.2856,2.2976],[35.298,2.2707],[35.3088,2.2342],[35.3249,2.1668],[35.3403,2.125],[35.3658,2.0362],[35.3749,1.9922],[35.3734,1.9662],[35.3792,1.948],[35.3654,1.9285],[35.4417,1.8519],[35.4594,1.8457],[35.4686,1.8305],[35.466,1.8086],[35.4785,1.7956],[35.5044,1.776],[35.5099,1.7639],[35.5249,1.7681],[35.5422,1.7665],[35.5704,1.7544],[35.5926,1.7523],[35.6021,1.7581],[35.6173,1.745],[35.6266,1.7471],[35.6568,1.738],[35.6705,1.7238],[35.6987,1.7079],[35.72,1.7071],[35.7553,1.6759],[35.7686,1.6685],[35.7919,1.6636],[36.0966,1.1694],[36.174,1.1709],[36.3169,0.9913],[36.3404,0.9931],[36.3499,0.9663],[36.3668,0.9559],[36.3822,0.9543],[36.3891,0.9407],[36.3859,0.9273],[36.3921,0.9188],[36.4178,0.9369],[36.4365,0.9606],[36.4485,0.9804],[36.4582,0.9773],[36.4586,0.9967],[36.4416,1.0429],[36.4438,1.0553],[36.4388,1.0807],[36.4388,1.1019],[36.4448,1.1134],[36.4341,1.1385],[36.4351,1.1562],[36.4423,1.1729],[36.4186,1.1866],[36.399,1.1737],[36.39,1.1789],[36.398,1.2068],[36.394,1.22],[36.4216,1.2367],[36.4134,1.2467],[36.3965,1.2554],[36.3877,1.2656],[36.4082,1.2791],[36.4229,1.2671],[36.4301,1.2673],[36.444,1.2526],[36.4535,1.2544],[36.4508,1.2726],[36.4346,1.293],[36.4034,1.3005],[36.3957,1.308],[36.4102,1.3286],[36.4211,1.3369],[36.4206,1.3458],[36.4351,1.3521],[36.4376,1.36],[36.4582,1.3687],[36.4665,1.3986],[36.455,1.3981],[36.445,1.4121],[36.4316,1.4101],[36.4122,1.4221],[36.3895,1.445],[36.3559,1.436],[36.3479,1.4388],[36.3227,1.4679],[36.3053,1.4689],[36.2941,1.4634],[36.2866,1.4699],[36.2976,1.4883],[36.2938,1.502],[36.2998,1.5421],[36.3312,1.571],[36.3578,1.5708],[36.3578,1.5877],[36.3668,1.5957],[36.3748,1.5848],[36.3693,1.5636],[36.372,1.5479],[36.3835,1.5312],[36.3955,1.5242],[36.4099,1.5611],[36.4313,1.5845],[36.4311,1.598],[36.4426,1.6181],[36.462,1.6191],[36.4705,1.6433],[36.4685,1.6525],[36.4769,1.6754],[36.4854,1.6829],[36.4842,1.7028],[36.4989,1.7061],[36.5056,1.7312],[36.5185,1.741],[36.5253,1.7549],[36.5193,1.7666],[36.5208,1.7851],[36.5293,1.7998],[36.5136,1.816],[36.5215,1.8319],[36.523,1.8464],[36.5098,1.8596],[36.5121,1.8795],[36.5233,1.8832],[36.5352,1.8949],[36.5395,1.9266],[36.5345,1.9635],[36.5461,2.0071],[36.5445,2.0293],[36.5677,2.0569],[36.5645,2.1059],[36.5803,2.1232],[36.5859,2.1442],[36.5935,2.146],[36.6097,2.1626],[36.6362,2.1639],[36.6563,2.1734],[36.6866,2.1957],[36.6992,2.1979],[36.6996,2.2168],[36.7107,2.2232],[36.7093,2.2395],[36.7138,2.2523],[36.7073,2.2597],[36.7228,2.275],[36.7237,2.301],[36.601,2.36],[36.6009,2.4057],[36.5924,2.412],[36.5591,2.3971],[36.5404,2.4046],[36.5225,2.4507],[36.5276,2.4744],[36.5285,2.5222],[36.5231,2.5261],[36.5139,2.5589],[36.4931,2.5743],[36.473,2.6005],[36.4716,2.6086],[36.4536,2.611],[36.4368,2.6335],[36.4332,2.6533],[36.4348,2.6865],[36.4457,2.7028],[36.4308,2.714],[36.4197,2.7374],[36.4175,2.762],[36.3984,2.7925],[36.3752,2.8425],[36.3588,2.8608],[36.3446,2.8628],[36.2973,2.8874],[36.283,2.8902],[36.2701,2.9055],[36.2602,2.936],[36.2592,2.9497],[36.2463,2.9492],[36.2358,2.9561],[36.2004,2.962],[36.1926,2.9678],[36.1637,2.9667],[36.1384,2.9693],[36.1356,2.9795],[36.1234,2.9813],[36.128,3.0039],[36.137,3.015],[36.1428,3.056],[36.1413,3.073],[36.1527,3.0825],[36.1506,3.0981],[36.1531,3.1241],[36.151,3.1377],[36.1413,3.1574],[36.1526,3.1899],[36.1542,3.2146],[36.1423,3.2095],[36.1229,3.214],[36.1143,3.2211],[36.0719,3.2287],[36.0521,3.2406],[36.0498,4.0566],[36.0506,4.4562]]]},"properties":{"countyId":"turkana","name":"Turkana"}},
{"type":"Feature","geometry":{"type":"Polygon","coordinates":[[[36.6009,2.4057],[36.6089,2.3966],[36.619,2.3998],[36.6205,2.4124],[36.6434,2.4058],[36.6432,2.4177],[36.6562,2.4198],[36.6711,2.4455],[36.688,2.4589],[36.6968,2.4543],[36.703,2.4774],[36.7022,2.4975],[36.7077,2.5085],[36.7567,2.5161],[36.8435,2.2748],[36.8658,2.2538],[36.8967,2.1925],[36.9035,2.1553],[36.9153,2.1257],[36.9127,2.1],[36.9182,2.0835],[36.9209,2.0574],[36.916,2.0216],[36.9253,2.0169],[36.95,2.0251],[37.0059,1.9855],[37.0421,1.9825],[37.0908,1.9834],[37.1495,1.9683],[37.1768,1.958],[37.1899,1.9314],[37.2199,1.907],[37.2321,1.9002],[37.241,1.8858],[37.2667,1.8776],[37.3061,1.7655],[37.3505,1.7421],[37.443,1.5874],[37.4692,1.5543],[37.4999,1.5012],[37.5578,1.3962],[37.5698,1.3885],[37.5816,1.3723],[37.5993,1.3906],[37.6087,1.3753],[37.6215,1.3769],[37.6467,1.3992],[37.6559,1.3966],[37.6836,1.399],[37.71,1.4072],[37.7374,1.4076],[37.7479,1.4134],[37.7786,1.4121],[37.7936,1.4141],[37.8183,1.423],[37.8434,1.4262],[37.8521,1.4591],[37.9506,1.387],[37.9453,1.2629],[38.3397,1.5774],[38.3832,1.7613],[38.9626,2.0974],[38.9512,2.1144],[38.9358,2.1612],[38.9383,2.2148],[38.9261,2.2829],[38.9361,2.3179],[38.9316,2.344],[38.9343,2.3743],[38.9309,2.3806],[38.9282,2.412],[38.9145,2.4408],[38.902,2.4794],[38.8886,2.5426],[38.968,2.5632],[38.9817,2.5712],[39.0434,2.676],[39.0362,2.6869],[39.046,2.7001],[39.0525,2.7265],[39.066,2.7376],[39.0651,2.8823],[39.1118,2.8833],[39.1172,2.9161],[39.1236,2.9313],[39.1396,2.941],[39.1533,2.9547],[39.2022,2.9569],[39.2481,2.9891],[39.2494,2.9959],[39.2893,3.0353],[39.324,3.0528],[39.3468,3.0701],[39.3424,3.2484],[39.3392,3.274],[39.3282,3.2887],[39.3259,3.3146],[39.3135,3.4068],[39.3017,3.4266],[39.2998,3.4407],[39.3052,3.4568],[39.3181,3.472],[39.2951,3.4794],[39.2694,3.4727],[39.2327,3.4794],[39.2272,3.4831],[39.2012,3.4798],[39.1508,3.5055],[39.1062,3.5242],[39.0898,3.5405],[39.0543,3.523],[39.038,3.5301],[39.0227,3.5255],[39.0221,3.516],[39.0001,3.5211],[38.9803,3.5172],[38.964,3.5236],[38.9586,3.5089],[38.9043,3.5059],[38.8409,3.5282],[38.8381,3.5274],[38.7138,3.5656],[38.7117,3.5754],[38.6926,3.6051],[38.6879,3.6174],[38.6722,3.6154],[38.6763,3.6042],[38.6654,3.5872],[38.6113,3.6076],[38.5992,3.5999],[38.5761,3.6011],[38.5571,3.615],[38.5468,3.6396],[38.5343,3.6492],[38.5157,3.6446],[38.5223,3.6222],[38.5045,3.6178],[38.4476,3.5976],[38.3045,3.6078],[38.1811,3.6158],[38.1282,3.6008],[38.1128,3.6182],[38.0338,3.6842],[37.9896,3.7292],[37.9184,3.7685],[37.9076,3.7778],[37.799,3.8495],[37.7665,3.8695],[37.6518,3.9503],[37.6463,3.9578],[37.5851,3.9987],[37.4934,4.0647],[37.4277,4.1077],[37.4203,4.1113],[37.2865,4.199],[37.138,4.2954],[37.132,4.2938],[37.1136,4.3073],[37.0905,4.3431],[37.0638,4.3526],[37.0322,4.3857],[37.0205,4.3719],[37.0043,4.3781],[36.9871,4.3925],[36.9083,4.4251],[36.8783,4.4318],[36.8426,4.45],[36.679,4.4414],[36.6603,4.4419],[36.6433,4.4536],[36.6252,4.4541],[36.5459,4.4446],[36.2627,4.4509],[36.2458,4.4575],[36.2318,4.4512],[36.0506,4.4562],[36.0498,4.0566],[36.0521,3.2406],[36.0719,3.2287],[36.1143,3.2211],[36.1229,3.214],[36.1423,3.2095],[36.1542,3.2146],[36.1526,3.1899],[36.1413,3.1574],[36.151,3.1377],[36.1531,3.1241],[36.1506,3.0981],[36.1527,3.0825],[36.1413,3.073],[36.1428,3.056],[36.137,3.015],[36.128,3.0039],[36.1234,2.9813],[36.1356,2.9795],[36.1384,2.9693],[36.1637,2.9667],[36.1926,2.9678],[36.2004,2.962],[36.2358,2.9561],[36.2463,2.9492],[36.2592,2.9497],[36.2602,2.936],[36.2701,2.9055],[36.283,2.8902],[36.2973,2.8874],[36.3446,2.8628],[36.3588,2.8608],[36.3752,2.8425],[36.3984,2.7925],[36.4175,2.762],[36.4197,2.7374],[36.4308,2.714],[36.4457,2.7028],[36.4348,2.6865],[36.4332,2.6533],[36.4368,2.6335],[36.4536,2.611],[36.4716,2.6086],[36.473,2.6005],[36.4931,2.5743],[36.5139,2.5589],[36.5231,2.5261],[36.5285,2.5222],[36.5276,2.4744],[36.5225,2.4507],[36.5404,2.4046],[36.5591,2.3971],[36.5924,2.412],[36.6009,2.4057]]]},"properties":{"countyId":"marsabit","name":"Marsabit"}},
{"type":"Feature","geometry":{"type":"Polygon","coordinates":[[[40.992,2.1792],[40.9925,2.2519],[40.9926,2.5232],[40.9925,2.8248],[41.1855,3.0142],[41.3283,3.1537],[41.5263,3.4348],[41.6442,3.6014],[41.7996,3.8233],[41.8914,3.9524],[41.9063,3.9764],[41.8985,3.9811],[41.8547,3.9515],[41.8276,3.9527],[41.8209,3.9587],[41.798,3.9599],[41.7995,3.9722],[41.7796,3.982],[41.7742,3.9744],[41.7553,3.9746],[41.7548,3.9824],[41.7319,3.99],[41.7056,3.9877],[41.6706,3.9688],[41.6553,3.9667],[41.6433,3.9792],[41.6263,3.9844],[41.6174,3.9748],[41.5959,3.9715],[41.5797,3.9738],[41.5655,3.9698],[41.551,3.9854],[41.5267,3.9741],[41.5217,3.9609],[41.5127,3.9552],[41.5011,3.9697],[41.4711,3.9559],[41.4633,3.9605],[41.4386,3.9508],[41.4194,3.95],[41.3974,3.9656],[41.3811,3.9603],[41.377,3.9534],[41.3542,3.9589],[41.3506,3.9499],[41.3276,3.942],[41.3121,3.948],[41.281,3.948],[41.2641,3.9557],[41.2532,3.9525],[41.2382,3.9603],[41.2152,3.9534],[41.2069,3.9357],[41.1957,3.9368],[41.155,3.9581],[41.1306,3.9672],[41.1318,3.9744],[41.1153,3.9888],[41.1013,3.9918],[41.0981,4.0098],[41.0713,4.0279],[41.0617,4.0505],[41.0529,4.056],[41.0397,4.0771],[41.0325,4.0751],[41.0189,4.0848],[40.9996,4.1123],[40.9819,4.1138],[40.9729,4.1301],[40.9582,4.1426],[40.9073,4.1568],[40.8996,4.1838],[40.887,4.1933],[40.887,4.2118],[40.8679,4.2284],[40.8568,4.2287],[40.848,4.249],[40.8241,4.2537],[40.8051,4.2656],[40.7936,4.2684],[40.7822,4.2828],[40.7579,4.2817],[40.7459,4.2641],[40.7273,4.252],[40.7108,4.2525],[40.6932,4.2413],[40.4017,4.1227],[40.3874,4.116],[40.206,4.0422],[40.1901,4.0454],[40.1836,4.0323],[40.1175,3.9971],[39.8677,3.8675],[39.7753,3.6681],[39.7868,3.3335],[40.0351,3.2296],[40.0442,3.2242],[40.1404,3.1199],[40.1827,3.0729],[40.2697,2.9706],[40.4915,2.8681],[40.4982,2.8323],[40.4951,2.817],[40.5037,2.8097],[40.5024,2.7961],[40.5194,2.7709],[40.5205,2.7397],[40.5009,2.7223],[40.5212,2.6958],[40.528,2.6642],[40.5326,2.6594],[40.5521,2.6084],[40.5539,2.5933],[40.5674,2.5647],[40.5814,2.5498],[40.5813,2.5287],[40.5958,2.5144],[40.5914,2.5032],[40.6032,2.4928],[40.6035,2.4845],[40.6155,2.4629],[40.6418,2.4355],[40.6596,2.4305],[40.6649,2.4217],[40.6681,2.3905],[40.6817,2.3703],[40.6929,2.3657],[40.7097,2.349],[40.7205,2.3272],[40.7378,2.3147],[40.7571,2.3142],[40.7791,2.3051],[40.7984,2.2868],[40.816,2.277],[40.8377,2.2753],[40.8432,2.263],[40.8763,2.2246],[40.9136,2.1929],[40.9375,2.18],[40.9625,2.1763],[40.992,2.1792]]]},"properties":{"countyId":"mandera","name":"Mandera"}},
{"type":"Feature","geometry":{"type":"Polygon","coordinates":[[[38.9626,2.0974],[38.9853,2.0696],[38.9847,2.0523],[38.9918,2.0441],[38.9896,2.0272],[38.9956,2.0078],[39.0197,1.9774],[39.0351,1.9671],[39.0542,1.9336],[39.0838,1.8991],[39.102,1.89],[39.1121,1.8779],[39.1311,1.8662],[39.1458,1.8366],[39.144,1.8304],[39.1701,1.7911],[39.1803,1.7534],[39.2138,1.6974],[39.2319,1.6938],[39.2854,1.6675],[39.3083,1.6545],[39.3286,1.6339],[39.3453,1.626],[39.3791,1.5786],[39.3948,1.5652],[39.3989,1.5542],[39.4149,1.5509],[39.4385,1.5295],[39.4472,1.5272],[39.2743,1.4678],[39.3424,1.2895],[39.3978,1.1463],[39.4608,1.0003],[39.4607,0.9947],[39.4804,0.9794],[39.4915,0.964],[39.4979,0.9339],[39.5279,0.8685],[39.5457,0.8157],[39.5528,0.787],[39.5689,0.7486],[39.5885,0.719],[39.615,0.6841],[39.6467,0.657],[39.6544,0.6326],[39.6766,0.5977],[39.6994,0.5691],[39.7243,0.5436],[39.7321,0.527],[39.7627,0.5115],[39.777,0.4955],[39.7992,0.483],[39.8207,0.4821],[39.8526,0.4759],[39.8566,0.4692],[39.8761,0.4582],[39.9025,0.4625],[39.9439,0.4297],[39.9699,0.4141],[40.013,0.3989],[40.0484,0.3963],[40.0596,0.3926],[40.1282,0.3426],[40.1633,0.3239],[40.1781,0.3099],[40.2111,0.272],[40.2237,0.2601],[40.2589,0.2373],[40.3071,0.2156],[40.3299,0.2],[40.366,0.1982],[40.3832,0.1938],[40.3999,0.1843],[40.4297,0.1902],[40.4484,0.1862],[40.4817,0.1882],[40.4966,0.198],[40.5066,0.1924],[40.514,0.2082],[40.5309,0.2255],[40.5407,0.2268],[40.5617,0.2167],[40.5873,0.2158],[40.5969,0.2265],[40.6121,0.2328],[40.6484,0.2326],[40.6829,0.26],[40.683,0.2698],[40.6945,0.2781],[40.709,0.3101],[40.7186,0.3217],[40.7373,0.3273],[40.7551,0.3459],[40.7745,0.3546],[40.8433,0.3709],[40.886,0.3924],[40.9202,0.425],[40.9456,0.4369],[40.9612,0.4476],[40.9755,0.452],[40.9918,0.4644],[40.9923,0.6033],[40.9923,0.858],[40.9926,1.018],[40.9923,1.1705],[40.9922,1.4428],[40.9921,1.7101],[40.9904,1.9473],[40.992,2.1792],[40.9625,2.1763],[40.9375,2.18],[40.9136,2.1929],[40.8763,2.2246],[40.8432,2.263],[40.8377,2.2753],[40.816,2.277],[40.7984,2.2868],[40.7791,2.3051],[40.7571,2.3142],[40.7378,2.3147],[40.7205,2.3272],[40.7097,2.349],[40.6929,2.3657],[40.6817,2.3703],[40.6681,2.3905],[40.6649,2.4217],[40.6596,2.4305],[40.6418,2.4355],[40.6155,2.4629],[40.6035,2.4845],[40.6032,2.4928],[40.5914,2.5032],[40.5958,2.5144],[40.5813,2.5287],[40.5814,2.5498],[40.5674,2.5647],[40.5539,2.5933],[40.5521,2.6084],[40.5326,2.6594],[40.528,2.6642],[40.5212,2.6958],[40.5009,2.7223],[40.5205,2.7397],[40.5194,2.7709],[40.5024,2.7961],[40.5037,2.8097],[40.4951,2.817],[40.4982,2.8323],[40.4915,2.8681],[40.2697,2.9706],[40.1827,3.0729],[40.1404,3.1199],[40.0442,3.2242],[40.0351,3.2296],[39.7868,3.3335],[39.7753,3.6681],[39.7659,3.6611],[39.6094,3.5011],[39.553,3.4661],[39.5403,3.4728],[39.5253,3.4666],[39.5015,3.4701],[39.4867,3.4605],[39.4665,3.4603],[39.4566,3.456],[39.4456,3.4607],[39.4313,3.4576],[39.3763,3.4682],[39.3359,3.4663],[39.3181,3.472],[39.3052,3.4568],[39.2998,3.4407],[39.3017,3.4266],[39.3135,3.4068],[39.3259,3.3146],[39.3282,3.2887],[39.3392,3.274],[39.3424,3.2484],[39.3468,3.0701],[39.324,3.0528],[39.2893,3.0353],[39.2494,2.9959],[39.2481,2.9891],[39.2022,2.9569],[39.1533,2.9547],[39.1396,2.941],[39.1236,2.9313],[39.1172,2.9161],[39.1118,2.8833],[39.0651,2.8823],[39.066,2.7376],[39.0525,2.7265],[39.046,2.7001],[39.0362,2.6869],[39.0434,2.676],[38.9817,2.5712],[38.968,2.5632],[38.8886,2.5426],[38.902,2.4794],[38.9145,2.4408],[38.9282,2.412],[38.9309,2.3806],[38.9343,2.3743],[38.9316,2.344],[38.9361,2.3179],[38.9261,2.2829],[38.9383,2.2148],[38.9358,2.1612],[38.9512,2.1144],[38.9626,2.0974]]]},"properties":{"countyId":"wajir","name":"Wajir"}},
{"type":"Feature","geometry":{"type":"Polygon","coordinates":[[[36.3921,0.9188],[36.4024,0.9005],[36.4169,0.9025],[36.4296,0.8839],[36.4455,0.8716],[36.4541,0.8726],[36.4888,0.845],[36.4824,0.8135],[36.6695,0.8133],[36.6872,0.8175],[36.7084,0.8144],[36.7347,0.825],[36.7561,0.8584],[36.7731,0.8656],[36.7934,0.8694],[36.8156,0.8559],[36.8201,0.8382],[36.832,0.8135],[36.8345,0.7998],[36.8567,0.7635],[36.8658,0.7377],[36.8811,0.7332],[36.8969,0.7403],[36.9087,0.7368],[36.9316,0.7434],[36.9663,0.7421],[37.0031,0.7502],[37.042,0.7643],[37.0569,0.7718],[37.0707,0.7669],[37.0732,0.7796],[37.1038,0.7875],[37.1244,0.7781],[37.1366,0.7595],[37.1524,0.7595],[37.1699,0.7427],[37.2005,0.7464],[37.2199,0.7394],[37.248,0.7634],[37.2574,0.7636],[37.2731,0.7458],[37.2887,0.7369],[37.3008,0.7197],[37.3137,0.6864],[37.3263,0.6684],[37.3331,0.649],[37.3417,0.6467],[37.3526,0.6223],[37.3538,0.6013],[37.3897,0.5769],[37.4291,0.5831],[37.447,0.5804],[37.4624,0.5864],[37.4895,0.5893],[37.4923,0.5762],[37.5082,0.5694],[37.5311,0.5654],[37.5445,0.5777],[37.5574,0.571],[37.5832,0.5746],[37.5825,0.5874],[37.6073,0.5922],[37.6181,0.5998],[37.6351,0.5997],[37.6383,0.6211],[37.6504,0.6322],[37.666,0.6332],[37.6812,0.6426],[37.6907,0.6631],[37.7091,0.6672],[37.7288,0.6565],[37.7467,0.6762],[37.7578,0.6726],[37.7739,0.678],[37.7896,0.6722],[37.8321,0.6798],[37.8446,0.6896],[37.8464,0.7115],[37.867,0.7267],[37.8768,0.7442],[37.8885,0.7388],[37.9126,0.712],[37.9363,0.7303],[37.9404,0.7388],[37.9721,0.7598],[37.9882,0.7773],[38.0155,0.797],[38.0468,0.7844],[38.05,0.7786],[38.0809,0.7814],[38.0475,0.805],[38.0308,1.0851],[37.9482,1.1943],[37.9453,1.2629],[37.9506,1.387],[37.8521,1.4591],[37.8434,1.4262],[37.8183,1.423],[37.7936,1.4141],[37.7786,1.4121],[37.7479,1.4134],[37.7374,1.4076],[37.71,1.4072],[37.6836,1.399],[37.6559,1.3966],[37.6467,1.3992],[37.6215,1.3769],[37.6087,1.3753],[37.5993,1.3906],[37.5816,1.3723],[37.5698,1.3885],[37.5578,1.3962],[37.4999,1.5012],[37.4692,1.5543],[37.443,1.5874],[37.3505,1.7421],[37.3061,1.7655],[37.2667,1.8776],[37.241,1.8858],[37.2321,1.9002],[37.2199,1.907],[37.1899,1.9314],[37.1768,1.958],[37.1495,1.9683],[37.0908,1.9834],[37.0421,1.9825],[37.0059,1.9855],[36.95,2.0251],[36.9253,2.0169],[36.916,2.0216],[36.9209,2.0574],[36.9182,2.0835],[36.9127,2.1],[36.9153,2.1257],[36.9035,2.1553],[36.8967,2.1925],[36.8658,2.2538],[36.8435,2.2748],[36.7567,2.5161],[36.7077,2.5085],[36.7022,2.4975],[36.703,2.4774],[36.6968,2.4543],[36.688,2.4589],[36.6711,2.4455],[36.6562,2.4198],[36.6432,2.4177],[36.6434,2.4058],[36.6205,2.4124],[36.619,2.3998],[36.6089,2.3966],[36.6009,2.4057],[36.601,2.36],[36.7237,2.301],[36.7228,2.275],[36.7073,2.2597],[36.7138,2.2523],[36.7093,2.2395],[36.7107,2.2232],[36.6996,2.2168],[36.6992,2.1979],[36.6866,2.1957],[36.6563,2.1734],[36.6362,2.1639],[36.6097,2.1626],[36.5935,2.146],[36.5859,2.1442],[36.5803,2.1232],[36.5645,2.1059],[36.5677,2.0569],[36.5445,2.0293],[36.5461,2.0071],[36.5345,1.9635],[36.5395,1.9266],[36.5352,1.8949],[36.5233,1.8832],[36.5121,1.8795],[36.5098,1.8596],[36.523,1.8464],[36.5215,1.8319],[36.5136,1.816],[36.5293,1.7998],[36.5208,1.7851],[36.5193,1.7666],[36.5253,1.7549],[36.5185,1.741],[36.5056,1.7312],[36.4989,1.7061],[36.4842,1.7028],[36.4854,1.6829],[36.4769,1.6754],[36.4685,1.6525],[36.4705,1.6433],[36.462,1.6191],[36.4426,1.6181],[36.4311,1.598],[36.4313,1.5845],[36.4099,1.5611],[36.3955,1.5242],[36.3835,1.5312],[36.372,1.5479],[36.3693,1.5636],[36.3748,1.5848],[36.3668,1.5957],[36.3578,1.5877],[36.3578,1.5708],[36.3312,1.571],[36.2998,1.5421],[36.2938,1.502],[36.2976,1.4883],[36.2866,1.4699],[36.2941,1.4634],[36.3053,1.4689],[36.3227,1.4679],[36.3479,1.4388],[36.3559,1.436],[36.3895,1.445],[36.4122,1.4221],[36.4316,1.4101],[36.445,1.4121],[36.455,1.3981],[36.4665,1.3986],[36.4582,1.3687],[36.4376,1.36],[36.4351,1.3521],[36.4206,1.3458],[36.4211,1.3369],[36.4102,1.3286],[36.3957,1.308],[36.4034,1.3005],[36.4346,1.293],[36.4508,1.2726],[36.4535,1.2544],[36.444,1.2526],[36.4301,1.2673],[36.4229,1.2671],[36.4082,1.2791],[36.3877,1.2656],[36.3965,1.2554],[36.4134,1.2467],[36.4216,1.2367],[36.394,1.22],[36.398,1.2068],[36.39,1.1789],[36.399,1.1737],[36.4186,1.1866],[36.4423,1.1729],[36.4351,1.1562],[36.4341,1.1385],[36.4448,1.1134],[36.4388,1.1019],[36.4388,1.0807],[36.4438,1.0553],[36.4416,1.0429],[36.4586,0.9967],[36.4582,0.9773],[36.4485,0.9804],[36.4365,0.9606],[36.4178,0.9369],[36.3921,0.9188]]]},"properties":{"countyId":"samburu","name":"Samburu"}},
{"type":"Feature","geometry":{"type":"Polygon","coordinates":[[[37.9453,1.2629],[37.9482,1.1943],[38.0308,1.0851],[38.0475,0.805],[38.0809,0.7814],[38.05,0.7786],[38.0468,0.7844],[38.0155,0.797],[37.9882,0.7773],[37.9721,0.7598],[37.9404,0.7388],[37.9363,0.7303],[37.9126,0.712],[37.8885,0.7388],[37.8768,0.7442],[37.867,0.7267],[37.8464,0.7115],[37.8446,0.6896],[37.8321,0.6798],[37.7896,0.6722],[37.7739,0.678],[37.7578,0.6726],[37.7467,0.6762],[37.7288,0.6565],[37.7091,0.6672],[37.6907,0.6631],[37.6812,0.6426],[37.666,0.6332],[37.6504,0.6322],[37.6383,0.6211],[37.6351,0.5997],[37.6181,0.5998],[37.6073,0.5922],[37.5825,0.5874],[37.5832,0.5746],[37.5574,0.571],[37.5445,0.5777],[37.5311,0.5654],[37.5082,0.5694],[37.4923,0.5762],[37.4895,0.5893],[37.4624,0.5864],[37.447,0.5804],[37.4291,0.5831],[37.3897,0.5769],[37.3538,0.6013],[37.3526,0.6223],[37.3417,0.6467],[37.3331,0.649],[37.3263,0.6684],[37.3137,0.6864],[37.3008,0.7197],[37.2887,0.7369],[37.2731,0.7458],[37.2574,0.7636],[37.248,0.7634],[37.2199,0.7394],[37.2005,0.7464],[37.1699,0.7427],[37.1524,0.7595],[37.1366,0.7595],[37.1244,0.7781],[37.1038,0.7875],[37.0732,0.7796],[37.0707,0.7669],[37.0569,0.7718],[37.042,0.7643],[37.0031,0.7502],[36.9663,0.7421],[36.9316,0.7434],[36.9273,0.7289],[36.9257,0.6871],[36.9219,0.661],[36.9118,0.6572],[36.9096,0.6327],[36.8901,0.6228],[36.8883,0.6104],[36.8752,0.6046],[36.8656,0.592],[36.8644,0.5658],[37.0719,0.5443],[37.2584,0.5248],[37.369,0.5116],[37.3611,0.5035],[37.3569,0.4655],[37.3489,0.4558],[37.3483,0.4402],[37.3537,0.4118],[37.3622,0.4076],[37.3769,0.3678],[37.3903,0.3549],[37.3937,0.3167],[37.3924,0.297],[37.4278,0.2978],[37.4642,0.283],[37.5371,0.264],[37.5477,0.2791],[37.5475,0.3107],[37.5555,0.3278],[37.5808,0.3275],[37.5922,0.3401],[37.6032,0.3607],[37.5988,0.4015],[37.5856,0.4017],[37.5814,0.42],[37.5816,0.463],[37.5865,0.4812],[37.826,0.5618],[38.0613,0.6674],[38.0946,0.5631],[38.1765,0.3301],[38.1959,0.3225],[38.1965,0.2287],[38.2543,0.1996],[38.264,0.185],[38.2836,0.1738],[38.2978,0.1611],[38.3069,0.132],[38.3085,0.1131],[38.3185,0.109],[38.3299,0.0938],[38.3245,0.082],[38.3313,0.0726],[38.3487,0.0632],[38.3453,0.0482],[38.3576,0.04],[38.3554,0.0279],[38.3795,-0.0011],[38.3951,-0.0078],[38.4023,-0.0172],[38.4066,-0.0409],[38.4134,-0.0515],[38.4115,-0.0623],[38.4207,-0.0693],[38.4342,-0.0748],[38.454,-0.0842],[38.4811,-0.0755],[38.4909,-0.0587],[38.5199,-0.0627],[38.5419,-0.0406],[38.5502,-0.0174],[38.5699,-0.0174],[38.6041,-0.0327],[38.6156,-0.0302],[38.6384,-0.0515],[38.657,-0.0451],[38.6827,-0.0538],[38.6984,-0.0491],[38.7172,-0.0609],[38.7401,-0.0694],[38.7594,-0.0721],[38.7687,-0.0687],[38.7667,-0.055],[38.7508,-0.0295],[38.7391,0.0062],[38.7401,0.0146],[38.7311,0.051],[38.7292,0.0838],[38.7323,0.0953],[38.7314,0.1214],[38.7376,0.1503],[38.7541,0.169],[38.7568,0.184],[38.7493,0.2176],[38.7322,0.2806],[38.6952,0.423],[38.6881,0.4544],[38.6803,0.4715],[38.6766,0.4936],[38.6617,0.5091],[38.6918,0.5101],[38.7034,0.5061],[38.7186,0.5105],[38.7244,0.5245],[38.736,0.5181],[38.7529,0.5225],[38.763,0.5116],[38.7857,0.5268],[38.8245,0.579],[38.8598,0.5993],[38.8747,0.5946],[38.9023,0.5963],[38.9263,0.6067],[38.9398,0.6284],[38.9781,0.6213],[38.986,0.6261],[39.0097,0.6244],[39.0201,0.6408],[39.0255,0.6632],[39.0334,0.6648],[39.0484,0.6833],[39.0572,0.6858],[39.0839,0.6753],[39.0973,0.6804],[39.1005,0.6889],[39.1423,0.6925],[39.1476,0.7063],[39.1733,0.7194],[39.1772,0.7463],[39.1953,0.7833],[39.2285,0.8267],[39.2351,0.8434],[39.3129,0.925],[39.3603,0.9544],[39.4352,0.9837],[39.4607,0.9947],[39.4608,1.0003],[39.3978,1.1463],[39.3424,1.2895],[39.2743,1.4678],[39.4472,1.5272],[39.4385,1.5295],[39.4149,1.5509],[39.3989,1.5542],[39.3948,1.5652],[39.3791,1.5786],[39.3453,1.626],[39.3286,1.6339],[39.3083,1.6545],[39.2854,1.6675],[39.2319,1.6938],[39.2138,1.6974],[39.1803,1.7534],[39.1701,1.7911],[39.144,1.8304],[39.1458,1.8366],[39.1311,1.8662],[39.1121,1.8779],[39.102,1.89],[39.0838,1.8991],[39.0542,1.9336],[39.0351,1.9671],[39.0197,1.9774],[38.9956,2.0078],[38.9896,2.0272],[38.9918,2.0441],[38.9847,2.0523],[38.9853,2.0696],[38.9626,2.0974],[38.3832,1.7613],[38.3397,1.5774],[37.9453,1.2629]]]},"properties":{"countyId":"isiolo","name":"Isiolo"}},
{"type":"Feature","geometry":{"type":"Polygon","coordinates":[[[39.4607,0.9947],[39.4352,0.9837],[39.3603,0.9544],[39.3129,0.925],[39.2351,0.8434],[39.2285,0.8267],[39.1953,0.7833],[39.1772,0.7463],[39.1733,0.7194],[39.1476,0.7063],[39.1423,0.6925],[39.1005,0.6889],[39.0973,0.6804],[39.0839,0.6753],[39.0572,0.6858],[39.0484,0.6833],[39.0334,0.6648],[39.0255,0.6632],[39.0201,0.6408],[39.0097,0.6244],[38.986,0.6261],[38.9781,0.6213],[38.9398,0.6284],[38.9263,0.6067],[38.9023,0.5963],[38.8747,0.5946],[38.8598,0.5993],[38.8245,0.579],[38.7857,0.5268],[38.763,0.5116],[38.7529,0.5225],[38.736,0.5181],[38.7244,0.5245],[38.7186,0.5105],[38.7034,0.5061],[38.6918,0.5101],[38.6617,0.5091],[38.6766,0.4936],[38.6803,0.4715],[38.6881,0.4544],[38.6952,0.423],[38.7322,0.2806],[38.7493,0.2176],[38.7568,0.184],[38.7541,0.169],[38.7376,0.1503],[38.7314,0.1214],[38.7323,0.0953],[38.7292,0.0838],[38.7311,0.051],[38.7401,0.0146],[38.7391,0.0062],[38.7508,-0.0295],[38.7667,-0.055],[38.7687,-0.0687],[38.7884,-0.0794],[38.8106,-0.0842],[38.8288,-0.0922],[38.8604,-0.0917],[38.8832,-0.0963],[38.9007,-0.0954],[38.9221,-0.0871],[38.9398,-0.099],[38.9548,-0.086],[38.967,-0.0823],[38.97,-0.0612],[39.0085,-0.0548],[39.0232,-0.0428],[39.0326,-0.0522],[39.0493,-0.0526],[39.0668,-0.0473],[39.0741,-0.0648],[39.0979,-0.088],[39.1017,-0.0982],[39.1316,-0.1188],[39.1341,-0.1297],[39.1658,-0.1271],[39.2014,-0.1427],[39.2151,-0.132],[39.2277,-0.1306],[39.2557,-0.1452],[39.2758,-0.1371],[39.3062,-0.1393],[39.3144,-0.1335],[39.3278,-0.1474],[39.3404,-0.1669],[39.3543,-0.1612],[39.3641,-0.1641],[39.3841,-0.1905],[39.4273,-0.1898],[39.4449,-0.2098],[39.4544,-0.2117],[39.4712,-0.2267],[39.4771,-0.2415],[39.4979,-0.2483],[39.5176,-0.284],[39.5122,-0.2945],[39.5477,-0.2954],[39.5628,-0.3292],[39.5847,-0.3405],[39.5966,-0.3605],[39.5981,-0.3943],[39.6038,-0.4098],[39.6133,-0.4088],[39.6103,-0.4373],[39.6349,-0.4567],[39.6291,-0.4698],[39.6306,-0.4899],[39.64,-0.4955],[39.6475,-0.5165],[39.6686,-0.5316],[39.663,-0.5482],[39.6868,-0.5523],[39.6856,-0.5744],[39.6969,-0.5916],[39.7389,-0.594],[39.7662,-0.6112],[39.7769,-0.6146],[39.7696,-0.6339],[39.789,-0.6604],[39.7976,-0.6903],[39.8101,-0.7039],[39.8115,-0.7277],[39.8212,-0.739],[39.8155,-0.7651],[39.8422,-0.8061],[39.8432,-0.8469],[39.8573,-0.8475],[39.8519,-0.8684],[39.8586,-0.884],[39.8517,-0.8975],[39.861,-0.9145],[39.8607,-0.9261],[39.8785,-0.9367],[39.8688,-0.9475],[39.8915,-0.9907],[39.8857,-0.9951],[39.899,-1.0281],[39.9127,-1.0425],[39.9083,-1.0513],[39.9208,-1.0787],[39.9259,-1.0777],[39.9324,-1.1291],[39.9438,-1.1311],[39.9608,-1.1531],[39.9623,-1.1662],[39.9727,-1.1863],[39.9893,-1.2025],[39.9997,-1.2189],[39.996,-1.2283],[40.0084,-1.242],[40.0013,-1.2547],[40.0047,-1.2699],[39.9993,-1.2844],[39.9994,-1.3089],[40.0106,-1.3278],[40.001,-1.3481],[40.0096,-1.3654],[40.0125,-1.3816],[40.022,-1.401],[40.0245,-1.4221],[40.0343,-1.4326],[40.032,-1.4627],[40.0388,-1.4908],[40.0709,-1.4709],[40.0873,-1.4743],[40.1051,-1.5079],[40.1149,-1.5529],[40.1261,-1.5702],[40.1433,-1.5864],[40.154,-1.6078],[40.1601,-1.6536],[40.1578,-1.6941],[40.1708,-1.7239],[40.1691,-1.7355],[40.1579,-1.7617],[40.163,-1.8234],[40.1875,-1.8629],[40.1865,-1.8942],[40.1893,-1.9315],[40.186,-1.9598],[40.1976,-1.9838],[40.1964,-1.9978],[40.2046,-2.0153],[40.2079,-2.0329],[40.9029,-1.7145],[41.562,-1.6587],[41.5622,-1.5975],[40.9924,-0.8291],[40.991,-0.002],[40.9913,0.196],[40.9913,0.3441],[40.9918,0.4644],[40.9755,0.452],[40.9612,0.4476],[40.9456,0.4369],[40.9202,0.425],[40.886,0.3924],[40.8433,0.3709],[40.7745,0.3546],[40.7551,0.3459],[40.7373,0.3273],[40.7186,0.3217],[40.709,0.3101],[40.6945,0.2781],[40.683,0.2698],[40.6829,0.26],[40.6484,0.2326],[40.6121,0.2328],[40.5969,0.2265],[40.5873,0.2158],[40.5617,0.2167],[40.5407,0.2268],[40.5309,0.2255],[40.514,0.2082],[40.5066,0.1924],[40.4966,0.198],[40.4817,0.1882],[40.4484,0.1862],[40.4297,0.1902],[40.3999,0.1843],[40.3832,0.1938],[40.366,0.1982],[40.3299,0.2],[40.3071,0.2156],[40.2589,0.2373],[40.2237,0.2601],[40.2111,0.272],[40.1781,0.3099],[40.1633,0.3239],[40.1282,0.3426],[40.0596,0.3926],[40.0484,0.3963],[40.013,0.3989],[39.9699,0.4141],[39.9439,0.4297],[39.9025,0.4625],[39.8761,0.4582],[39.8566,0.4692],[39.8526,0.4759],[39.8207,0.4821],[39.7992,0.483],[39.777,0.4955],[39.7627,0.5115],[39.7321,0.527],[39.7243,0.5436],[39.6994,0.5691],[39.6766,0.5977],[39.6544,0.6326],[39.6467,0.657],[39.615,0.6841],[39.5885,0.719],[39.5689,0.7486],[39.5528,0.787],[39.5457,0.8157],[39.5279,0.8685],[39.4979,0.9339],[39.4915,0.964],[39.4804,0.9794],[39.4607,0.9947]]]},"properties":{"countyId":"garissa","name":"Garissa"}},
{"type":"Feature","geometry":{"type":"Polygon","coordinates":[[[38.3091,-0.0515],[38.2896,-0.0236],[38.2648,-0.0131],[38.2465,-0.019],[38.2304,-0.0059],[38.224,0.0118],[38.2056,0.0196],[38.1929,0.015],[38.1763,0.0265],[38.1603,0.0295],[38.1442,0.0446],[38.1136,0.0574],[38.1043,0.0477],[38.0886,0.043],[38.0835,0.0299],[38.0721,0.0265],[38.0427,0.0264],[38.0283,0.0514],[38.0154,0.0614],[37.9931,0.0689],[37.9602,0.0671],[37.9464,0.0463],[37.9567,0.0396],[37.9399,0.0274],[37.9376,0.0084],[37.9073,0.0069],[37.9,0.0102],[37.8917,-0.0186],[37.8541,-0.0118],[37.8483,-0.0304],[37.8624,-0.0689],[37.8495,-0.105],[37.8572,-0.121],[37.7966,-0.162],[37.7845,-0.1545],[37.7681,-0.1563],[37.7535,-0.1827],[37.7224,-0.2033],[37.6989,-0.2029],[37.6701,-0.2069],[37.6617,-0.2165],[37.626,-0.2049],[37.6134,-0.1943],[37.6029,-0.1945],[37.5908,-0.1833],[37.5275,-0.1815],[37.3078,-0.1511],[37.5538,-0.3599],[37.5712,-0.3631],[37.6018,-0.3831],[37.631,-0.3891],[37.662,-0.4212],[37.6828,-0.4263],[37.694,-0.4376],[37.712,-0.4423],[37.7209,-0.45],[37.7476,-0.4448],[37.7582,-0.4484],[37.785,-0.4463],[37.8146,-0.4272],[37.832,-0.4042],[37.8455,-0.4032],[37.8521,-0.389],[37.8661,-0.3819],[37.8735,-0.3493],[37.8912,-0.3459],[37.8897,-0.3641],[37.8966,-0.3765],[37.8913,-0.3933],[37.9089,-0.4137],[37.9211,-0.4144],[37.9254,-0.4271],[37.9365,-0.4273],[37.9512,-0.4256],[37.9646,-0.4116],[37.9778,-0.3548],[37.972,-0.3447],[37.9857,-0.3174],[37.984,-0.2996],[37.9931,-0.2853],[38.0003,-0.265],[38.027,-0.2686],[38.0457,-0.2753],[38.0879,-0.2738],[38.1025,-0.2784],[38.1133,-0.2753],[38.1354,-0.2562],[38.1421,-0.2406],[38.1622,-0.2353],[38.1635,-0.2218],[38.1819,-0.1893],[38.1871,-0.1503],[38.2069,-0.1422],[38.207,-0.128],[38.2204,-0.1036],[38.2503,-0.0841],[38.2714,-0.093],[38.2799,-0.0824],[38.3015,-0.0661],[38.3091,-0.0515]]]},"properties":{"countyId":"tharaka_nithi","name":"Tharaka-Nithi"}},
{"type":"Feature","geometry":{"type":"Polygon","coordinates":[[[38.4207,-0.0693],[38.4035,-0.0749],[38.3916,-0.0735],[38.379,-0.0838],[38.3469,-0.0614],[38.3268,-0.0633],[38.3091,-0.0515],[38.3015,-0.0661],[38.2799,-0.0824],[38.2714,-0.093],[38.2503,-0.0841],[38.2204,-0.1036],[38.207,-0.128],[38.2069,-0.1422],[38.1871,-0.1503],[38.1819,-0.1893],[38.1635,-0.2218],[38.1622,-0.2353],[38.1421,-0.2406],[38.1354,-0.2562],[38.1133,-0.2753],[38.1025,-0.2784],[38.0879,-0.2738],[38.0457,-0.2753],[38.027,-0.2686],[38.0003,-0.265],[37.9931,-0.2853],[37.984,-0.2996],[37.9857,-0.3174],[37.972,-0.3447],[37.9778,-0.3548],[37.9646,-0.4116],[37.9512,-0.4256],[37.9365,-0.4273],[37.929,-0.448],[37.9134,-0.4661],[37.9009,-0.4965],[37.8823,-0.5332],[37.8873,-0.5532],[37.8825,-0.5807],[37.9217,-0.6227],[37.9063,-0.6383],[37.893,-0.6447],[37.8948,-0.6803],[37.9039,-0.6847],[37.8986,-0.7034],[37.9119,-0.7076],[37.9155,-0.728],[37.9094,-0.7469],[37.891,-0.7664],[37.8925,-0.7779],[37.8806,-0.79],[37.8835,-0.802],[37.8706,-0.8096],[37.8455,-0.8098],[37.8478,-0.8209],[37.8414,-0.8435],[37.8323,-0.8518],[37.823,-0.8805],[37.8229,-0.8936],[37.8395,-0.9092],[37.8386,-0.919],[37.8507,-0.9311],[37.8468,-0.945],[37.8566,-0.9642],[37.8681,-0.9732],[37.8465,-0.995],[37.8495,-1.0047],[37.8467,-1.0413],[37.8303,-1.0679],[37.8191,-1.0708],[37.8069,-1.0973],[37.7965,-1.1271],[37.7382,-1.0775],[37.594,-1.0859],[37.5969,-1.1472],[37.6115,-1.142],[37.623,-1.1476],[37.6381,-1.1694],[37.6491,-1.1974],[37.6758,-1.2325],[37.6842,-1.2345],[37.6967,-1.269],[37.7127,-1.2909],[37.7316,-1.3401],[37.7486,-1.357],[37.7594,-1.3544],[37.7748,-1.3609],[37.8036,-1.3945],[37.8072,-1.4189],[37.8132,-1.4342],[37.8101,-1.4473],[37.7801,-1.4707],[37.7705,-1.4867],[37.7349,-1.4962],[37.7097,-1.4887],[37.6946,-1.4986],[37.7107,-1.5082],[37.7326,-1.5423],[37.7483,-1.5539],[37.7533,-1.5664],[37.7712,-1.5829],[37.7828,-1.6094],[37.8034,-1.6426],[37.8038,-1.6528],[37.8219,-1.6696],[37.8194,-1.6784],[37.8368,-1.6907],[37.8351,-1.7106],[37.8429,-1.7115],[37.8549,-1.7544],[37.8535,-1.7639],[37.8403,-1.7679],[37.8377,-1.7792],[37.8472,-1.7979],[37.8915,-1.842],[37.8834,-1.8518],[37.8979,-1.8678],[37.9068,-1.9042],[37.9162,-1.91],[37.9076,-1.9324],[37.9125,-1.9543],[37.9283,-1.9972],[37.9384,-2.0118],[37.9414,-2.0357],[37.9486,-2.0352],[37.952,-2.0569],[37.9584,-2.0717],[37.9524,-2.1331],[37.9604,-2.1405],[37.9628,-2.1653],[37.9972,-2.1531],[38.0211,-2.1478],[38.0263,-2.1609],[38.0451,-2.1661],[38.0578,-2.2055],[38.0671,-2.215],[38.0697,-2.2474],[38.0845,-2.2639],[38.1103,-2.2843],[38.1088,-2.2998],[38.1233,-2.3177],[38.146,-2.3208],[38.1743,-2.3384],[38.1871,-2.3394],[38.1992,-2.3531],[38.2107,-2.3541],[38.2217,-2.3981],[38.2361,-2.4087],[38.2453,-2.4092],[38.253,-2.4201],[38.2712,-2.4215],[38.2817,-2.4511],[38.2867,-2.4809],[38.301,-2.4984],[38.3103,-2.501],[38.3205,-2.5304],[38.3217,-2.5481],[38.3308,-2.5621],[38.3379,-2.5849],[38.3469,-2.5893],[38.3616,-2.6298],[38.3661,-2.6481],[38.382,-2.6634],[38.3885,-2.6909],[38.4133,-2.7506],[38.4198,-2.7586],[38.4308,-2.7859],[38.418,-2.8107],[38.4255,-2.8172],[38.431,-2.839],[38.4271,-2.8482],[38.445,-2.8682],[38.4441,-2.8802],[38.4542,-2.8845],[38.4745,-2.9284],[38.5046,-2.9648],[38.5191,-2.9748],[38.539,-2.9737],[38.5642,-2.9866],[38.5849,-2.9877],[38.5942,-2.9986],[38.6093,-3.0065],[38.6439,-3.0129],[38.6627,-3.0315],[38.6652,-3.0394],[38.7082,-3.0321],[38.7335,-3.0425],[38.7566,-3.0461],[38.7726,-3.0439],[38.8082,-3.0526],[38.8016,-3.0675],[38.8213,-3.0656],[38.8359,-3.0594],[38.8644,-3.0571],[38.8936,-3.0385],[38.9167,-3.0445],[38.9371,-3.0346],[38.9523,-3.0392],[38.9806,-3.0393],[38.9903,-3.0268],[39.0418,-3.0212],[39.0447,-3.031],[39.0608,-3.0407],[39.0751,-3.0411],[38.6265,-2.4105],[38.6456,-2.4178],[38.6844,-2.4133],[38.7116,-2.3974],[38.732,-2.378],[38.7332,-2.3701],[38.7692,-2.3525],[38.7809,-2.3537],[38.7952,-2.3397],[39.0151,-1.914],[38.9585,-1.7028],[38.9824,-1.6946],[38.9997,-1.6763],[38.9567,-1.078],[38.9534,-1.0318],[38.8298,-0.7602],[38.4342,-0.0748],[38.4207,-0.0693]]]},"properties":{"countyId":"kitui","name":"Kitui"}},
{"type":"Feature","geometry":{"type":"Polygon","coordinates":[[[37.8455,-0.8098],[37.8333,-0.8118],[37.8194,-0.8037],[37.8071,-0.8132],[37.7811,-0.8237],[37.7713,-0.8188],[37.7584,-0.8219],[37.7416,-0.7761],[37.6988,-0.7831],[37.6924,-0.7934],[37.6819,-0.7949],[37.6815,-0.8213],[37.6721,-0.8273],[37.6658,-0.8439],[37.6575,-0.8455],[37.636,-0.8369],[37.6274,-0.8499],[37.6065,-0.853],[37.5904,-0.861],[37.5875,-0.8763],[37.5625,-0.8733],[37.5461,-0.8815],[37.5337,-0.8938],[37.5344,-0.9101],[37.5178,-0.9124],[37.5173,-0.9019],[37.5043,-0.8973],[37.4967,-0.9049],[37.477,-0.8937],[37.4663,-0.8728],[37.447,-0.8703],[37.4427,-0.8638],[37.427,-0.8659],[37.3618,-0.8442],[37.3241,-0.8416],[37.3045,-0.8001],[37.286,-0.783],[37.2673,-0.7853],[37.2572,-0.8381],[37.2349,-0.8359],[37.2249,-0.8515],[37.2515,-0.8603],[37.2772,-0.8923],[37.3176,-0.9179],[37.3242,-0.9324],[37.3133,-0.9402],[37.3366,-0.9649],[37.354,-0.9458],[37.3662,-0.9624],[37.344,-0.9762],[37.3386,-0.9847],[37.3612,-0.9875],[37.4052,-1.0137],[37.42,-1.0351],[37.3895,-1.0573],[37.3627,-1.0949],[37.3407,-1.1132],[37.3151,-1.0919],[37.2979,-1.0713],[37.2804,-1.0659],[37.2679,-1.0677],[37.2449,-1.0799],[37.2319,-1.0754],[37.2128,-1.0793],[37.1898,-1.0973],[37.1752,-1.1198],[37.1865,-1.1386],[37.1798,-1.1583],[37.181,-1.1685],[37.1666,-1.188],[37.1551,-1.1966],[37.1594,-1.2065],[37.1524,-1.2246],[37.1344,-1.2335],[37.1208,-1.2351],[37.1105,-1.2464],[37.1025,-1.2737],[37.0769,-1.2855],[37.0763,-1.3031],[37.0248,-1.2919],[37.0026,-1.3007],[36.9951,-1.2816],[36.9728,-1.2894],[36.9828,-1.312],[36.9791,-1.3167],[36.9399,-1.3326],[36.9047,-1.3656],[36.9149,-1.3767],[36.9222,-1.3942],[36.9423,-1.4065],[36.9451,-1.4212],[36.9533,-1.4301],[36.9319,-1.4343],[36.8877,-1.4156],[36.876,-1.4794],[36.8826,-1.489],[36.9256,-1.4573],[36.9427,-1.4551],[36.9453,-1.4636],[36.9747,-1.4772],[36.969,-1.4918],[36.9724,-1.5014],[36.9618,-1.5144],[36.9582,-1.5411],[36.9661,-1.5528],[36.9795,-1.5578],[36.9922,-1.5761],[37.1094,-1.7322],[37.1252,-1.7418],[37.1403,-1.7375],[37.1461,-1.7536],[37.1573,-1.7654],[37.1601,-1.7802],[37.2068,-1.7754],[37.2205,-1.7696],[37.2444,-1.7357],[37.2636,-1.7583],[37.2806,-1.7693],[37.2928,-1.7524],[37.3019,-1.7532],[37.2868,-1.7183],[37.3116,-1.7002],[37.3192,-1.7081],[37.3458,-1.7041],[37.3738,-1.7051],[37.4127,-1.6891],[37.4083,-1.6838],[37.3711,-1.604],[37.3628,-1.5891],[37.3349,-1.5617],[37.3469,-1.5531],[37.3798,-1.5202],[37.4003,-1.5215],[37.4277,-1.5318],[37.4434,-1.5315],[37.4659,-1.5182],[37.4889,-1.5175],[37.5196,-1.5364],[37.5526,-1.5391],[37.5604,-1.5505],[37.579,-1.5645],[37.5966,-1.5509],[37.5984,-1.5611],[37.6181,-1.5673],[37.6307,-1.5886],[37.6405,-1.5872],[37.6422,-1.6101],[37.6596,-1.6451],[37.6807,-1.6261],[37.6841,-1.6115],[37.6822,-1.5859],[37.7006,-1.5829],[37.7114,-1.6049],[37.7182,-1.6085],[37.7339,-1.5951],[37.7339,-1.5754],[37.7533,-1.5664],[37.7483,-1.5539],[37.7326,-1.5423],[37.7107,-1.5082],[37.6946,-1.4986],[37.7097,-1.4887],[37.7349,-1.4962],[37.7705,-1.4867],[37.7801,-1.4707],[37.8101,-1.4473],[37.8132,-1.4342],[37.8072,-1.4189],[37.8036,-1.3945],[37.7748,-1.3609],[37.7594,-1.3544],[37.7486,-1.357],[37.7316,-1.3401],[37.7127,-1.2909],[37.6967,-1.269],[37.6842,-1.2345],[37.6758,-1.2325],[37.6491,-1.1974],[37.6381,-1.1694],[37.623,-1.1476],[37.6115,-1.142],[37.5969,-1.1472],[37.594,-1.0859],[37.7382,-1.0775],[37.7965,-1.1271],[37.8069,-1.0973],[37.8191,-1.0708],[37.8303,-1.0679],[37.8467,-1.0413],[37.8495,-1.0047],[37.8465,-0.995],[37.8681,-0.9732],[37.8566,-0.9642],[37.8468,-0.945],[37.8507,-0.9311],[37.8386,-0.919],[37.8395,-0.9092],[37.8229,-0.8936],[37.823,-0.8805],[37.8323,-0.8518],[37.8414,-0.8435],[37.8478,-0.8209],[37.8455,-0.8098]]]},"properties":{"countyId":"machakos","name":"Machakos"}},
{"type":"Feature","geometry":{"type":"Polygon","coordinates":[[[37.7533,-1.5664],[37.7339,-1.5754],[37.7339,-1.5951],[37.7182,-1.6085],[37.7114,-1.6049],[37.7006,-1.5829],[37.6822,-1.5859],[37.6841,-1.6115],[37.6807,-1.6261],[37.6596,-1.6451],[37.6422,-1.6101],[37.6405,-1.5872],[37.6307,-1.5886],[37.6181,-1.5673],[37.5984,-1.5611],[37.5966,-1.5509],[37.579,-1.5645],[37.5604,-1.5505],[37.5526,-1.5391],[37.5196,-1.5364],[37.4889,-1.5175],[37.4659,-1.5182],[37.4434,-1.5315],[37.4277,-1.5318],[37.4003,-1.5215],[37.3798,-1.5202],[37.3469,-1.5531],[37.3349,-1.5617],[37.3628,-1.5891],[37.3711,-1.604],[37.4083,-1.6838],[37.4127,-1.6891],[37.3738,-1.7051],[37.3458,-1.7041],[37.3192,-1.7081],[37.3116,-1.7002],[37.2868,-1.7183],[37.3019,-1.7532],[37.2928,-1.7524],[37.2806,-1.7693],[37.2636,-1.7583],[37.2444,-1.7357],[37.2205,-1.7696],[37.2068,-1.7754],[37.1601,-1.7802],[37.1415,-1.8121],[37.142,-1.8366],[37.1537,-1.8441],[37.1616,-1.8571],[37.163,-1.8711],[37.1518,-1.8875],[37.17,-1.9169],[37.182,-1.9233],[37.1862,-1.9345],[37.2227,-1.9334],[37.2341,-1.936],[37.2458,-1.9495],[37.2639,-1.9583],[37.2759,-1.9774],[37.2784,-1.9919],[37.2993,-2.0058],[37.3588,-2.0124],[37.3738,-2.0199],[37.452,-2.0738],[37.5352,-2.1057],[37.5503,-2.1264],[37.5625,-2.1253],[37.594,-2.1528],[37.6213,-2.1603],[37.6633,-2.1539],[37.6901,-2.1641],[37.6995,-2.1644],[37.7081,-2.1812],[37.7026,-2.1969],[37.6838,-2.2235],[37.6746,-2.2278],[37.6781,-2.2419],[37.6749,-2.2656],[37.6646,-2.2893],[37.6518,-2.2883],[37.6446,-2.2988],[37.6292,-2.3018],[37.608,-2.3003],[37.5973,-2.3109],[37.8495,-2.6039],[37.8781,-2.6592],[37.8907,-2.6735],[37.9009,-2.7024],[37.9215,-2.7043],[37.9304,-2.7236],[37.9243,-2.7409],[37.93,-2.7674],[37.9441,-2.7808],[37.9737,-2.7886],[38.1155,-2.712],[38.1282,-2.6987],[38.1499,-2.6995],[38.1615,-2.6799],[38.1679,-2.695],[38.1803,-2.7014],[38.2612,-2.7605],[38.2706,-2.77],[38.2945,-2.8042],[38.3199,-2.8331],[38.3512,-2.8869],[38.3816,-2.9182],[38.3954,-2.9271],[38.408,-2.9278],[38.4293,-2.9557],[38.4487,-2.9721],[38.4571,-2.9898],[38.4763,-2.9853],[38.5095,-2.9819],[38.5191,-2.9748],[38.5046,-2.9648],[38.4745,-2.9284],[38.4542,-2.8845],[38.4441,-2.8802],[38.445,-2.8682],[38.4271,-2.8482],[38.431,-2.839],[38.4255,-2.8172],[38.418,-2.8107],[38.4308,-2.7859],[38.4198,-2.7586],[38.4133,-2.7506],[38.3885,-2.6909],[38.382,-2.6634],[38.3661,-2.6481],[38.3616,-2.6298],[38.3469,-2.5893],[38.3379,-2.5849],[38.3308,-2.5621],[38.3217,-2.5481],[38.3205,-2.5304],[38.3103,-2.501],[38.301,-2.4984],[38.2867,-2.4809],[38.2817,-2.4511],[38.2712,-2.4215],[38.253,-2.4201],[38.2453,-2.4092],[38.2361,-2.4087],[38.2217,-2.3981],[38.2107,-2.3541],[38.1992,-2.3531],[38.1871,-2.3394],[38.1743,-2.3384],[38.146,-2.3208],[38.1233,-2.3177],[38.1088,-2.2998],[38.1103,-2.2843],[38.0845,-2.2639],[38.0697,-2.2474],[38.0671,-2.215],[38.0578,-2.2055],[38.0451,-2.1661],[38.0263,-2.1609],[38.0211,-2.1478],[37.9972,-2.1531],[37.9628,-2.1653],[37.9604,-2.1405],[37.9524,-2.1331],[37.9584,-2.0717],[37.952,-2.0569],[37.9486,-2.0352],[37.9414,-2.0357],[37.9384,-2.0118],[37.9283,-1.9972],[37.9125,-1.9543],[37.9076,-1.9324],[37.9162,-1.91],[37.9068,-1.9042],[37.8979,-1.8678],[37.8834,-1.8518],[37.8915,-1.842],[37.8472,-1.7979],[37.8377,-1.7792],[37.8403,-1.7679],[37.8535,-1.7639],[37.8549,-1.7544],[37.8429,-1.7115],[37.8351,-1.7106],[37.8368,-1.6907],[37.8194,-1.6784],[37.8219,-1.6696],[37.8038,-1.6528],[37.8034,-1.6426],[37.7828,-1.6094],[37.7712,-1.5829],[37.7533,-1.5664]]]},"properties":{"countyId":"makueni","name":"Makueni"}}
]}